{"type": "FeatureCollection", "features": [ {"type": "Feature", "properties": {"norad_id": 30596, "name": "FENGYUN 1C DEB", "group": "fengyun-1c-debris", "lat": -77.45589885710073, "lon": 27.977901395431697, "alt_km": 607.9749544023689, "timestamp": "2025-12-14T14:39:29.647993+00:00", "meta": {"OBJECT_NAME": "FENGYUN 1C DEB", "OBJECT_ID": "1999-025AMB", "EPOCH": "2025-12-13T12:49:27.051168", "MEAN_MOTION": 14.343648, "ECCENTRICITY": 0.02472703, "INCLINATION": 98.4132, "RA_OF_ASC_NODE": 345.2348, "ARG_OF_PERICENTER": 286.7158, "MEAN_ANOMALY": 197.7186, "EPHEMERIS_TYPE": 0, "CLASSIFICATION_TYPE": "U", "NORAD_CAT_ID": 30596, "ELEMENT_SET_NO": 999, "REV_AT_EPOCH": 98572, "BSTAR": 0.00052404233, "MEAN_MOTION_DOT": 2.025e-05, "MEAN_MOTION_DDOT": 0}, "tle": {"line1": "1 30596U 99025AMB 25347.53434087  .00002025  00000+0  52404-3 0  9999", "line2": "2 30596  98.4132 345.2348 0247270 286.7158 197.7186 14.34364800985723"}}, "geometry": {"type": "Point", "coordinates": [27.977901395431697, -77.45589885710073]}}, {"type": "Feature", "properties": {"norad_id": 30597, "name": "FENGYUN 1C DEB", "group": "fengyun-1c-debris", "lat": -7.977244479532308, "lon": 104.06195170700425, "alt_km": 566.3914685556038, "timestamp": "2025-12-14T14:39:29.648003+00:00", "meta": {"OBJECT_NAME": "FENGYUN 1C DEB", "OBJECT_ID": "1999-025AMC", "EPOCH": "2025-12-13T18:30:51.966720", "MEAN_MOTION": 14.92587017, "ECCENTRICITY": 0.00455413, "INCLINATION": 98.9389, "RA_OF_ASC_NODE": 284.3738, "ARG_OF_PERICENTER": 159.6009, "MEAN_ANOMALY": 200.7038, "EPHEMERIS_TYPE": 0, "CLASSIFICATION_TYPE": "U", "NORAD_CAT_ID": 30597, "ELEMENT_SET_NO": 999, "REV_AT_EPOCH": 98552, "BSTAR": 0.0045901491, "MEAN_MOTION_DOT": 0.00048414, "MEAN_MOTION_DDOT": 0}, "tle": {"line1": "1 30597U 99025AMC 25347.77143480  .00048414  00000+0  45901-2 0  9995", "line2": "2 30597  98.9389 284.3738 0045541 159.6009 200.7038 14.92587017985529"}}, "geometry": {"type": "Point", "coordinates": [104.06195170700425, -7.977244479532308]}}, {"type": "Feature", "properties": {"norad_id": 30599, "name": "FENGYUN 1C DEB", "group": "fengyun-1c-debris", "lat": 35.05326213032377, "lon": -173.715180452447, "alt_km": 1033.9454250401814, "timestamp": "2025-12-14T14:39:29.648013+00:00", "meta": {"OBJECT_NAME": "FENGYUN 1C DEB", "OBJECT_ID": "1999-025AME", "EPOCH": "2025-12-13T12:36:28.817856", "MEAN_MOTION": 14.1969707, "ECCENTRICITY": 0.03023078, "INCLINATION": 98.6053, "RA_OF_ASC_NODE": 359.1294, "ARG_OF_PERICENTER": 342.5097, "MEAN_ANOMALY": 16.5843, "EPHEMERIS_TYPE": 0, "CLASSIFICATION_TYPE": "U", "NORAD_CAT_ID": 30599, "ELEMENT_SET_NO": 999, "REV_AT_EPOCH": 97178, "BSTAR": 0.0010265876, "MEAN_MOTION_DOT": 3.384e-05, "MEAN_MOTION_DDOT": 0}, "tle": {"line1": "1 30599U 99025AME 25347.52533354  .00003384  00000+0  10266-2 0  9996", "line2": "2 30599  98.6053 359.1294 0302307 342.5097  16.5843 14.19697070971780"}}, "geometry": {"type": "Point", "coordinates": [-173.715180452447, 35.05326213032377]}}, {"type": "Feature", "properties": {"norad_id": 30600, "name": "FENGYUN 1C DEB", "group": "fengyun-1c-debris", "lat": 17.906718779802528, "lon": 115.96235817807582, "alt_km": 820.4151536311692, "timestamp": "2025-12-14T14:39:29.648024+00:00", "meta": {"OBJECT_NAME": "FENGYUN 1C DEB", "OBJECT_ID": "1999-025AMF", "EPOCH": "2025-12-13T13:58:24.211488", "MEAN_MOTION": 14.07524849, "ECCENTRICITY": 0.03277003, "INCLINATION": 98.3867, "RA_OF_ASC_NODE": 292.2731, "ARG_OF_PERICENTER": 244.9794, "MEAN_ANOMALY": 111.7021, "EPHEMERIS_TYPE": 0, "CLASSIFICATION_TYPE": "U", "NORAD_CAT_ID": 30600, "ELEMENT_SET_NO": 999, "REV_AT_EPOCH": 94444, "BSTAR": 0.0041303076, "MEAN_MOTION_DOT": 0.00011355, "MEAN_MOTION_DDOT": 0}, "tle": {"line1": "1 30600U 99025AMF 25347.58222467  .00011355  00000+0  41303-2 0  9998", "line2": "2 30600  98.3867 292.2731 0327700 244.9794 111.7021 14.07524849944448"}}, "geometry": {"type": "Point", "coordinates": [115.96235817807582, 17.906718779802528]}}, {"type": "Feature", "properties": {"norad_id": 30602, "name": "FENGYUN 1C DEB", "group": "fengyun-1c-debris", "lat": 20.673104860668584, "lon": -100.67731936238421, "alt_km": 593.4237712185941, "timestamp": "2025-12-14T14:39:29.648034+00:00", "meta": {"OBJECT_NAME": "FENGYUN 1C DEB", "OBJECT_ID": "1999-025AMH", "EPOCH": "2025-12-13T17:52:45.197184", "MEAN_MOTION": 14.91476465, "ECCENTRICITY": 0.00113423, "INCLINATION": 99.0335, "RA_OF_ASC_NODE": 261.7736, "ARG_OF_PERICENTER": 117.6258, "MEAN_ANOMALY": 297.4199, "EPHEMERIS_TYPE": 0, "CLASSIFICATION_TYPE": "U", "NORAD_CAT_ID": 30602, "ELEMENT_SET_NO": 999, "REV_AT_EPOCH": 97820, "BSTAR": 0.007261499, "MEAN_MOTION_DOT": 0.00073415, "MEAN_MOTION_DDOT": 0}, "tle": {"line1": "1 30602U 99025AMH 25347.74496756  .00073415  00000+0  72615-2 0  9997", "line2": "2 30602  99.0335 261.7736 0011342 117.6258 297.4199 14.91476465978209"}}, "geometry": {"type": "Point", "coordinates": [-100.67731936238421, 20.673104860668584]}}, {"type": "Feature", "properties": {"norad_id": 30603, "name": "FENGYUN 1C DEB", "group": "fengyun-1c-debris", "lat": -38.0310357825224, "lon": 17.976534130648336, "alt_km": 1023.6792386123834, "timestamp": "2025-12-14T14:39:29.648044+00:00", "meta": {"OBJECT_NAME": "FENGYUN 1C DEB", "OBJECT_ID": "1999-025AMJ", "EPOCH": "2025-12-13T13:34:34.872960", "MEAN_MOTION": 13.84124554, "ECCENTRICITY": 0.01833708, "INCLINATION": 98.41, "RA_OF_ASC_NODE": 10.3956, "ARG_OF_PERICENTER": 203.109, "MEAN_ANOMALY": 312.0455, "EPHEMERIS_TYPE": 0, "CLASSIFICATION_TYPE": "U", "NORAD_CAT_ID": 30603, "ELEMENT_SET_NO": 999, "REV_AT_EPOCH": 94887, "BSTAR": 0.0016202016, "MEAN_MOTION_DOT": 2.018e-05, "MEAN_MOTION_DDOT": 0}, "tle": {"line1": "1 30603U 99025AMJ 25347.56568140  .00002018  00000+0  16202-2 0  9996", "line2": "2 30603  98.4100  10.3956 0183370 203.1090 312.0455 13.84124554948870"}}, "geometry": {"type": "Point", "coordinates": [17.976534130648336, -38.0310357825224]}}, {"type": "Feature", "properties": {"norad_id": 30604, "name": "FENGYUN 1C DEB", "group": "fengyun-1c-debris", "lat": -67.32133735071119, "lon": -177.34862806639993, "alt_km": 875.5672515061624, "timestamp": "2025-12-14T14:39:29.648055+00:00", "meta": {"OBJECT_NAME": "FENGYUN 1C DEB", "OBJECT_ID": "1999-025AMK", "EPOCH": "2025-12-13T08:52:36.984864", "MEAN_MOTION": 14.23611929, "ECCENTRICITY": 0.02096315, "INCLINATION": 98.4026, "RA_OF_ASC_NODE": 22.1798, "ARG_OF_PERICENTER": 5.0244, "MEAN_ANOMALY": 10.0939, "EPHEMERIS_TYPE": 0, "CLASSIFICATION_TYPE": "U", "NORAD_CAT_ID": 30604, "ELEMENT_SET_NO": 999, "REV_AT_EPOCH": 97848, "BSTAR": 0.00044338268, "MEAN_MOTION_DOT": 1.222e-05, "MEAN_MOTION_DDOT": 0}, "tle": {"line1": "1 30604U 99025AMK 25347.36987251  .00001222  00000+0  44338-3 0  9991", "line2": "2 30604  98.4026  22.1798 0209631   5.0244  10.0939 14.23611929978485"}}, "geometry": {"type": "Point", "coordinates": [-177.34862806639993, -67.32133735071119]}}, {"type": "Feature", "properties": {"norad_id": 30606, "name": "FENGYUN 1C DEB", "group": "fengyun-1c-debris", "lat": 68.7163106566815, "lon": -159.8474354393189, "alt_km": 552.6733353059417, "timestamp": "2025-12-14T14:39:29.648065+00:00", "meta": {"OBJECT_NAME": "FENGYUN 1C DEB", "OBJECT_ID": "1999-025AMM", "EPOCH": "2025-12-13T23:28:25.891680", "MEAN_MOTION": 14.57645377, "ECCENTRICITY": 0.02142121, "INCLINATION": 98.0964, "RA_OF_ASC_NODE": 358.1032, "ARG_OF_PERICENTER": 133.3169, "MEAN_ANOMALY": 259.2362, "EPHEMERIS_TYPE": 0, "CLASSIFICATION_TYPE": "U", "NORAD_CAT_ID": 30606, "ELEMENT_SET_NO": 999, "REV_AT_EPOCH": 99260, "BSTAR": 0.00072634251, "MEAN_MOTION_DOT": 4.492e-05, "MEAN_MOTION_DDOT": 0}, "tle": {"line1": "1 30606U 99025AMM 25347.97807745  .00004492  00000+0  72634-3 0  9991", "line2": "2 30606  98.0964 358.1032 0214212 133.3169 259.2362 14.57645377992607"}}, "geometry": {"type": "Point", "coordinates": [-159.8474354393189, 68.7163106566815]}}, {"type": "Feature", "properties": {"norad_id": 30608, "name": "FENGYUN 1C DEB", "group": "fengyun-1c-debris", "lat": 1.8139129988245364, "lon": 50.99244708482475, "alt_km": 810.8855471550623, "timestamp": "2025-12-14T14:39:29.648076+00:00", "meta": {"OBJECT_NAME": "FENGYUN 1C DEB", "OBJECT_ID": "1999-025AMP", "EPOCH": "2025-12-14T00:05:16.438272", "MEAN_MOTION": 14.28485775, "ECCENTRICITY": 0.00160786, "INCLINATION": 98.7107, "RA_OF_ASC_NODE": 50.6648, "ARG_OF_PERICENTER": 175.4259, "MEAN_ANOMALY": 306.2943, "EPHEMERIS_TYPE": 0, "CLASSIFICATION_TYPE": "U", "NORAD_CAT_ID": 30608, "ELEMENT_SET_NO": 999, "REV_AT_EPOCH": 97457, "BSTAR": 0.0013738141, "MEAN_MOTION_DOT": 3.402e-05, "MEAN_MOTION_DDOT": 0}, "tle": {"line1": "1 30608U 99025AMP 25348.00366248  .00003402  00000+0  13738-2 0  9995", "line2": "2 30608  98.7107  50.6648 0016078 175.4259 306.2943 14.28485775974575"}}, "geometry": {"type": "Point", "coordinates": [50.99244708482475, 1.8139129988245364]}}, {"type": "Feature", "properties": {"norad_id": 30609, "name": "FENGYUN 1C DEB", "group": "fengyun-1c-debris", "lat": 42.72459281831271, "lon": 93.14558346536613, "alt_km": 848.894595732816, "timestamp": "2025-12-14T14:39:29.648086+00:00", "meta": {"OBJECT_NAME": "FENGYUN 1C DEB", "OBJECT_ID": "1999-025AMQ", "EPOCH": "2025-12-13T17:36:19.183104", "MEAN_MOTION": 14.11222685, "ECCENTRICITY": 0.01195164, "INCLINATION": 98.5675, "RA_OF_ASC_NODE": 264.3051, "ARG_OF_PERICENTER": 50.1986, "MEAN_ANOMALY": 310.9635, "EPHEMERIS_TYPE": 0, "CLASSIFICATION_TYPE": "U", "NORAD_CAT_ID": 30609, "ELEMENT_SET_NO": 999, "REV_AT_EPOCH": 95742, "BSTAR": 0.0027711211, "MEAN_MOTION_DOT": 5.308e-05, "MEAN_MOTION_DDOT": 0}, "tle": {"line1": "1 30609U 99025AMQ 25347.73355536  .00005308  00000+0  27711-2 0  9996", "line2": "2 30609  98.5675 264.3051 0119516  50.1986 310.9635 14.11222685957429"}}, "geometry": {"type": "Point", "coordinates": [93.14558346536613, 42.72459281831271]}}]}